0 GLOBALSTAR M001
1 25162U 98008A   24028.40001372 -.00000042  00000-0  41624-3 0  9991
2 25162  52.0062   5.3143 0001459 271.5384 258.8383 12.38175406181057
0 GLOBALSTAR M004
1 25163U 98008B   24028.54618187 -.00000101  00000-0  14320-4 0  9995
2 25163  51.9986 156.6871 0002350 232.8558 253.6467 12.63349132197772
0 GLOBALSTAR M002
1 25164U 98008C   24028.48985758 -.00000059  00000-0  34547-3 0  9994
2 25164  52.0022  68.1434 0001000 282.4857  77.5851 11.61497057125309
0 GLOBALSTAR M003
1 25165U 98008D   24028.60235517  .00000086  00000-0  18742-2 0  9997
2 25165  51.9824 128.8473 0007757 359.9259 104.7273 12.11972912171919
0 GLOBALSTAR M014
1 25306U 98023A   24028.39587222 -.00000056  00000-0  40067-3 0  9994
2 25306  51.9876   2.2365 0000786 133.1408  35.3492 11.65464039132194
0 GLOBALSTAR M006
1 25307U 98023B   24028.48887236 -.00000100  00000-0 -48987-3 0  9993
2 25307  51.9960  35.5735 0003633 279.1852 250.1437 11.58156419158238
0 GLOBALSTAR M015
1 25308U 98023C   24028.65477147 -.00000091  00000-0 -40902-3 0  9997
2 25308  51.9819 110.4647 0012055 252.1677 260.1430 11.48858302135970
